[{"OBJECT_NAME":"HULIANWANG DIGUI-09","OBJECT_ID":"2024-240J","EPOCH":"2026-03-09T21:38:16.642464","MEAN_MOTION":13.24422743,"ECCENTRICITY":0.00020306,"INCLINATION":86.5038,"RA_OF_ASC_NODE":16.7337,"ARG_OF_PERICENTER":87.2243,"MEAN_ANOMALY":272.9124,"EPHEMERIS_TYPE":0,"CLASSIFICATION_TYPE":"U","NORAD_CAT_ID":62331,"ELEMENT_SET_NO":999,"REV_AT_EPOCH":5949,"BSTAR":9.6569533e-5,"MEAN_MOTION_DOT":5.6e-7,"MEAN_MOTION_DDOT":0},{"OBJECT_NAME":"BREEZE-M DEB","OBJECT_ID":"2006-006BG","EPOCH":"2026-03-07T08:54:35.726112","MEAN_MOTION":5.41784951,"ECCENTRICITY":0.49081395,"INCLINATION":51.7551,"RA_OF_ASC_NODE":189.9037,"ARG_OF_PERICENTER":332.0835,"MEAN_ANOMALY":25.3036,"EPHEMERIS_TYPE":0,"CLASSIFICATION_TYPE":"U","NORAD_CAT_ID":34241,"ELEMENT_SET_NO":999,"REV_AT_EPOCH":3429,"BSTAR":0.0026140231,"MEAN_MOTION_DOT":7.94e-6,"MEAN_MOTION_DDOT":0}]
